OBJECT_NAME,OBJECT_ID,EPOCH,MEAN_MOTION,ECCENTRICITY,INCLINATION,RA_OF_ASC_NODE,ARG_OF_PERICENTER,MEAN_ANOMALY,EPHEMERIS_TYPE,CLASSIFICATION_TYPE,NORAD_CAT_ID,ELEMENT_SET_NO,REV_AT_EPOCH,BSTAR,MEAN_MOTION_DOT,MEAN_MOTION_DDOT
ONEWEB-0529,2022-138AJ,2026-06-11T21:22:26.296896,13.19724187,.0001604,87.9165,306.0298,100.0958,260.0356,0,U,54145,999,17612,.13543613E-4,.18E-6,0
ONEWEB-0531,2022-138AK,2026-06-11T20:30:11.764512,13.20771460,.00027799,87.9189,275.4979,107.8787,252.2650,0,U,54146,999,17860,-.20286895E-3,-.69E-6,0
ONEWEB-0535,2022-138AL,2026-06-11T22:10:12.019872,13.19725080,.00021567,87.9172,306.0068,96.3264,263.8115,0,U,54147,999,17614,-.83133983E-4,-.2E-6,0
ONEWEB-0536,2022-138AM,2026-06-11T20:10:47.112384,13.20770826,.00028655,87.9179,275.5236,111.8338,248.3100,0,U,54148,999,17859,-.22349805E-3,-.78E-6,0
ONEWEB-0527,2022-166A,2026-06-12T00:00:02.999808,13.21786356,.00018655,87.9260,245.0296,101.0263,120.2519,0,U,54642,999,529,.14768292E-1,.6113E-4,0
ONEWEB-0528,2022-166B,2026-06-11T22:54:17.830656,13.21758405,.00019935,87.9254,245.0408,100.5612,259.5746,0,U,54643,999,17085,.24280817E-1,.10042E-3,0
ONEWEB-0539,2022-166C,2026-06-11T18:21:52.628544,13.21826624,.00020023,87.9260,245.0496,92.8757,267.2606,0,U,54644,999,17082,-.25689661E-3,-.93E-6,0
ONEWEB-0540,2022-166D,2026-06-11T18:31:45.575328,13.21826594,.00020588,87.9254,245.0789,96.0008,264.1360,0,U,54645,999,17081,-.13720137E-3,-.44E-6,0
ONEWEB-0542,2022-166E,2026-06-11T18:36:24.056352,13.21827231,.00020673,87.9263,245.0462,90.8018,269.3352,0,U,54646,999,17082,-.16288994E-3,-.54E-6,0
ONEWEB-0545,2022-166F,2026-06-11T17:45:31.604832,13.21827791,.00022247,87.9255,245.0655,86.3032,273.8356,0,U,54647,999,17078,-.18361442E-3,-.63E-6,0
ONEWEB-0580,2022-166G,2026-06-11T18:58:11.658144,13.21827175,.00023126,87.9253,245.0552,91.0159,269.1240,0,U,54648,999,17083,-.25154242E-4,.3E-7,0
ONEWEB-0582,2022-166H,2026-06-11T18:09:45.958752,13.21826481,.00022262,87.9253,245.0545,88.4198,271.7191,0,U,54649,999,17080,-.20591897E-3,-.72E-6,0
ONEWEB-0583,2022-166J,2026-06-11T18:26:42.694080,13.21827465,.00020587,87.9253,245.0755,95.8231,264.3138,0,U,54650,999,17081,-.18708079E-3,-.64E-6,0
ONEWEB-0584,2022-166K,2026-06-11T18:55:46.392096,13.21824920,.00021453,87.9251,245.0570,97.1731,262.9647,0,U,54651,999,17080,-.300218E-6,.13E-6,0
ONEWEB-0585,2022-166L,2026-06-11T17:40:42.070656,13.21826007,.00019511,87.9257,245.0544,103.2850,256.8501,0,U,54652,999,17080,-.22920257E-4,.4E-7,0
ONEWEB-0586,2022-166M,2026-06-11T18:00:02.807136,13.21823946,.00020178,87.9254,245.0772,94.0532,266.0833,0,U,54653,999,17080,-.22873867E-3,-.81E-6,0
ONEWEB-0587,2022-166N,2026-06-11T18:14:34.732608,13.21823990,.00019436,87.9264,245.0481,109.2791,250.8554,0,U,54654,999,17096,-.23579264E-3,-.84E-6,0
ONEWEB-0589,2022-166P,2026-06-11T17:55:12.288000,13.21823968,.00025572,87.9251,245.0638,82.0845,278.0580,0,U,54655,999,17082,-.17406142E-3,-.59E-6,0
ONEWEB-0590,2022-166Q,2026-06-11T18:31:21.951840,13.21826475,.00024781,87.9262,245.0485,102.7783,257.3628,0,U,54656,999,17081,-.2127953E-3,-.75E-6,0
ONEWEB-0591,2022-166R,2026-06-11T18:48:31.740480,13.21826262,.00021063,87.9252,245.0613,99.3525,260.7847,0,U,54657,999,17084,-.50705882E-4,-.8E-7,0
ONEWEB-0592,2022-166S,2026-06-11T18:53:21.577920,13.21827216,.00020412,87.9263,245.0382,99.0323,261.1042,0,U,54658,999,17072,-.14443455E-3,-.47E-6,0
ONEWEB-0593,2022-166T,2026-06-11T17:35:49.244640,13.21828105,.00019497,87.9256,245.0610,94.4823,265.6534,0,U,54659,999,17082,-.87603023E-4,-.23E-6,0
ONEWEB-0594,2022-166U,2026-06-11T14:26:54.427776,13.21813769,.0002038,87.9257,245.1036,101.5209,258.6153,0,U,54660,999,17082,-.3059E-2,-.125E-4,0
ONEWEB-0595,2022-166V,2026-06-11T15:41:59.576928,13.21826846,.00020516,87.9261,245.0734,106.3891,253.7469,0,U,54661,999,17080,-.8174656E-5,.1E-6,0
ONEWEB-0596,2022-166W,2026-06-11T18:43:40.689984,13.21826414,.00020419,87.9255,245.0600,102.1357,258.0006,0,U,54662,999,17082,-.12920848E-3,-.4E-6,0
ONEWEB-0597,2022-166X,2026-06-11T18:17:01.866624,13.21826385,.00020407,87.9253,245.0669,95.7082,264.4285,0,U,54663,999,17082,-.24594279E-3,-.89E-6,0
ONEWEB-0600,2022-166Y,2026-06-11T16:01:21.234432,13.21823821,.00018586,87.9254,245.0770,95.7624,264.3722,0,U,54664,999,17078,-.20653906E-4,.4E-7,0
ONEWEB-0601,2022-166Z,2026-06-11T17:38:15.694368,13.21825174,.00021508,87.9254,245.0798,92.8500,267.2880,0,U,54665,999,17098,-.14269125E-4,.7E-7,0
ONEWEB-0602,2022-166AA,2026-06-11T18:37:36.673824,13.21825859,.00017983,87.9253,245.0775,93.7994,266.3346,0,U,54666,999,17083,-.22178499E-3,-.79E-6,0
ONEWEB-0603,2022-166AB,2026-06-11T18:46:06.191904,13.21826147,.0002,87.9262,245.0328,96.0879,264.0483,0,U,54667,999,17076,-.94721107E-4,-.26E-6,0
ONEWEB-0604,2022-166AC,2026-06-11T18:29:07.938528,13.21827184,.00020022,87.9264,245.0507,101.5115,258.6244,0,U,54668,999,17072,-.26654547E-3,-.97E-6,0
ONEWEB-0605,2022-166AD,2026-06-11T18:19:27.610464,13.21826551,.00025912,87.9255,245.0660,92.6768,267.4663,0,U,54669,999,17079,-.23604675E-3,-.84E-6,0
ONEWEB-0606,2022-166AE,2026-06-11T18:50:56.701536,13.21826233,.00019879,87.9254,245.0741,104.4163,255.7192,0,U,54670,999,17085,.57690406E-4,.37E-6,0
ONEWEB-0607,2022-166AF,2026-06-11T18:02:28.220064,13.21823466,.00019653,87.9263,245.0514,94.5933,265.5425,0,U,54671,999,17082,-.39020602E-3,-.148E-5,0
ONEWEB-0608,2022-166AG,2026-06-11T18:12:10.315872,13.21827517,.00023699,87.9264,245.0466,88.5182,271.6223,0,U,54672,999,17083,-.16284594E-3,-.54E-6,0
ONEWEB-0610,2022-166AH,2026-06-11T17:43:05.465280,13.21824165,.00021988,87.9254,245.0654,82.6469,277.4914,0,U,54673,999,17073,-.96569911E-4,-.27E-6,0
ONEWEB-0611,2022-166AJ,2026-06-11T17:33:24.041664,13.21827509,.00020163,87.9254,245.0627,102.9089,257.2270,0,U,54674,999,17072,-.60478745E-4,-.12E-6,0
ONEWEB-0612,2022-166AK,2026-06-11T17:52:47.850528,13.21824918,.00020936,87.9265,245.0549,94.9208,265.2165,0,U,54675,999,17071,-.14679307E-3,-.48E-6,0
ONEWEB-0615,2022-166AL,2026-06-11T22:50:45.159648,13.21826091,.00018377,87.9257,245.0291,105.0070,255.1268,0,U,54676,999,17075,-.53349907E-4,-.9E-7,0
ONEWEB-0655,2022-166AM,2026-06-11T16:49:49.838592,13.21826048,.00018502,87.9254,245.0801,93.3720,266.7626,0,U,54677,999,17071,-.69683525E-4,-.16E-6,0
ONEWEB-0659,2022-166AN,2026-06-11T19:03:03.350592,13.21827538,.00020679,87.9253,245.0617,101.7528,258.3838,0,U,54678,999,17081,-.38861656E-4,-.3E-7,0
ONEWEB-0685,2022-166AP,2026-06-11T17:14:17.924064,13.21847147,.00020847,87.9252,245.0690,89.2563,270.8809,0,U,54679,999,17069,.8752616E-4,.49E-6,0
ONEWEB-0712,2022-166AQ,2026-06-11T17:45:56.119968,13.16593899,.00016457,87.9102,229.8558,89.4178,270.7141,0,U,54680,999,17134,-.32107785E-3,-.11E-5,0
ONEWEB-0714,2022-166AR,2026-06-11T17:21:17.238816,13.21823859,.00017242,87.9253,245.0653,97.1325,263.0005,0,U,54681,999,17081,-.27564542E-4,.2E-7,0
ONEWEB-0532,2023-004A,2026-06-11T22:41:41.736480,13.17647363,.00021926,87.9136,6.9076,89.6919,270.4463,0,U,55140,999,16689,-.294714E-3,-.102E-5,0
ONEWEB-0533,2023-004B,2026-06-11T23:14:24.377280,13.12443758,.00018709,87.8944,351.7087,83.2281,276.9060,0,U,55141,999,16737,.1289281E-2,.477E-5,0
ONEWEB-0541,2023-004C,2026-06-11T14:42:11.868768,13.11416601,.00018377,87.8898,22.1672,90.1678,269.9661,0,U,55142,999,16521,.74934469E-3,.278E-5,0
ONEWEB-0543,2023-004D,2026-06-11T22:16:52.909824,13.18685013,.00016142,87.9159,336.5164,89.2758,270.8559,0,U,55143,999,16900,-.18760315E-4,.6E-7,0
ONEWEB-0544,2023-004E,2026-06-11T22:07:10.463232,13.18685125,.00016787,87.9156,336.5175,96.3598,263.7725,0,U,55144,999,16900,.10067381E-3,.53E-6,0
ONEWEB-0560,2023-004F,2026-06-11T21:57:27.982080,13.18686243,.00015842,87.9158,336.5082,96.6005,263.5308,0,U,55145,999,16901,.8527429E-4,.47E-6,0
ONEWEB-0565,2023-004G,2026-06-11T21:47:45.032640,13.18685007,.00019568,87.9147,336.5380,104.2568,255.8782,0,U,55146,999,16900,.82925416E-4,.46E-6,0
ONEWEB-0567,2023-004H,2026-06-11T21:38:02.697504,13.18685378,.00018088,87.9159,336.5231,103.4047,256.7287,0,U,55147,999,16900,.16083454E-3,.76E-6,0
ONEWEB-0569,2023-004J,2026-06-11T21:42:05.008032,13.13468989,.00013679,87.8958,321.2713,124.8105,235.3153,0,U,55148,999,16948,.39493915E-3,.157E-5,0
ONEWEB-0570,2023-004K,2026-06-11T21:25:53.201568,13.18684764,.00022361,87.9156,336.5224,95.7998,264.3389,0,U,55149,999,16899,.12812532E-3,.63E-6,0
ONEWEB-0571,2023-004L,2026-06-11T23:05:27.363264,13.18687913,.00019984,87.9156,336.5080,130.0019,230.1289,0,U,55150,999,16901,.10900542E-3,.56E-6,0
ONEWEB-0572,2023-004M,2026-06-11T14:18:41.279040,13.17648235,.0001897,87.9134,6.9780,93.6795,266.4554,0,U,55151,999,16674,.16519E-3,.77E-6,0
ONEWEB-0573,2023-004N,2026-06-11T22:55:43.943808,13.18685951,.00020263,87.9159,336.5105,117.6160,242.5178,0,U,55152,999,16900,.42394157E-4,.3E-6,0
ONEWEB-0588,2023-004P,2026-06-11T22:46:00.908832,13.18685082,.0002291,87.9156,336.5123,98.2879,261.8513,0,U,55153,999,16900,.82270905E-4,.45E-6,0
ONEWEB-0598,2023-004Q,2026-06-11T14:10:27.586848,13.11419304,.0001486,87.8886,22.1831,107.8856,252.2434,0,U,55154,999,16516,.12859E-2,.468E-5,0
ONEWEB-0599,2023-004R,2026-06-11T22:29:32.622432,13.17648610,.00016123,87.9136,6.9088,86.9164,273.2152,0,U,55155,999,16679,.30423144E-3,.131E-5,0
ONEWEB-0614,2023-004S,2026-06-11T15:52:59.405088,13.11420048,.00020251,87.8891,22.1778,82.3387,277.7971,0,U,55156,999,16511,.69944114E-3,.261E-5,0
ONEWEB-0616,2023-004T,2026-06-11T14:23:33.616032,13.17648553,.0001109,87.9138,6.9795,64.1728,295.9518,0,U,55157,999,16696,-.21153E-4,.5E-7,0
ONEWEB-0617,2023-004U,2026-06-11T15:35:54.244896,13.11419167,.0002248,87.8896,22.1708,86.8271,273.3114,0,U,55158,999,16513,-.6870648E-3,-.231E-5,0
ONEWEB-0618,2023-004V,2026-06-11T13:40:11.355168,15.13102376,.0010358,86.9100,179.9148,325.8055,34.2517,0,U,55159,999,18141,.19022E-3,.3402E-4,0
ONEWEB-0619,2023-004W,2026-06-11T15:09:43.891200,13.17648670,.00020298,87.9146,6.9532,75.9026,284.2331,0,U,55160,999,16686,.10900155E-3,.55E-6,0
